STARLINK-31094          
1 58593U 23200E   26068.62192101  .00000613  00000+0  32520-4 0  9996
2 58593  43.0018 168.9694 0001394 266.7261  93.3431 15.26740016123605
AL MUNTHER              
1 63240U 25052AG  26068.64540749  .00017933  00000+0  65015-3 0  9992
2 63240  97.4001 323.9152 0008027 130.7043 229.4895 15.28381521 54798
